NUSAT-49 (KLARA DAN VO*)
1 60500U 24149AJ  26068.79810190  .00012912  00000+0  43568-3 0  9991
2 60500  97.3807 150.7380 0001132 286.7761  73.3356 15.30828857 86935
STARLINK-33815          
1 63497U 25071E   26068.47234660  .00018500  00000+0  63531-3 0  9992
2 63497  53.1584 141.1464 0001162  71.7777 288.3350 15.30192762 52736
